GLOBALSTAR M024         
1 25883U 99043A   24138.45828449 -.00000129  00000+0 -22849-2 0  9993
2 25883  51.9992 193.5185 0001814 182.1233 190.4574 11.10159076 70940
GLOBALSTAR M027         
1 25884U 99043B   24137.68904719  .00000004  00000+0  25481-2 0  9998
2 25884  52.0212 262.0027 0021594  72.7499 287.5655 11.04368504 97432
GLOBALSTAR M054         
1 25885U 99043C   24137.64308352 -.00000053  00000+0  46671-3 0  9996
2 25885  52.0125  95.9461 0004405 220.8134 310.0134 11.39203353 73857
GLOBALSTAR M053         
1 25886U 99043D   24137.85832584 -.00000053  00000+0  44425-3 0  9994
2 25886  52.0017  20.5407 0003800 119.6532   5.1184 11.27655092 74730
GLOBALSTAR M058         
1 25907U 99049A   24137.31744824 -.00000028  00000+0  75937-3 0  9998
2 25907  51.9940  88.8993 0002106 241.1492 118.9131 11.93177632494168
GLOBALSTAR M050         
1 25908U 99049B   24137.71592593  .00000043  00000+0  14869-2 0  9999
2 25908  51.9963 125.1323 0009270 322.3867 208.8576 12.07433885100294
GLOBALSTAR M033         
1 25909U 99049C   24138.39740058 -.00000020  00000+0  68547-3 0  9995
2 25909  51.9938  22.4350 0011762 171.2326 188.8729 12.20273602120143
GLOBALSTAR M055         
1 25910U 99049D   24138.48204628 -.00000068  00000+0  22615-3 0  9993
2 25910  52.0039  52.1993 0007617  32.1700 327.9615 12.29401383119839
